{"type":"FeatureCollection","features":[{"type":"Feature","properties":{"name":"Placemark 1","description":""},"geometry":{"type":"Polygon","coordinates":[[[27.161406244731495,-10.924338107318519,0],[27.161406244731495,-4.4252182543885965,0],[17.7608963987974,-4.4252182543885965,0],[17.7608963987974,-10.924338107318519,0],[27.161406244731495,-10.924338107318519,0]]]}},{"type":"Feature","properties":{"name":"Placemark 2","description":""},"geometry":{"type":"LineString","coordinates":[[32.15112923578272,-7.047721283416465,0],[36.44794428756711,-9.285667585221503,0],[29.336143735737465,-12.178300194230019,0],[29.26129302196071,-7.637795634430802,0],[31.808672443855954,-10.794680754979481,0],[33.34615603659563,-14.073623293468131,0],[27.9624326453378,-14.004386996183598,0],[21.482594865129954,-12.995905245495024,0],[25.789907114996453,-12.048982376704359,0]]}}]}