<kml xmlns="http://www.opengis.net/kml/2.2"><Document>
<Placemark>
<ExtendedData></ExtendedData>
  <LineString><coordinates>-1.8210842620636356,15.072111603059781
32.52197962263426,0.5404018778725117
38.58856428978325,16.013408809511404
11.74413376105366,45.00262545101745
1.7032228278991113,22.25788244967646
22.04385849709149,20.43093371953826</coordinates></LineString></Placemark>
<Placemark>
<ExtendedData></ExtendedData>
  <LineString><coordinates>-9.263846174168748,23.980751269018384
-9.322922011895116,23.94701151991204
-9.280461253528728,23.918325793167853
-9.256461694453293,23.9284508951163
-9.249077214736928,23.887945726481135</coordinates></LineString></Placemark>
<Placemark>
<ExtendedData></ExtendedData>
  <LineString><coordinates>-9.297076332889674,23.87950555236931
-9.393864187440045,23.874507068990255
-9.039366999160904,23.57194418806698</coordinates></LineString></Placemark>
<Placemark>
<ExtendedData></ExtendedData>
  <LineString><coordinates>111.98708433105992,-7.289209551700196
112.51261577940238,-7.3568515608577485
112.7603112249513,-7.825124284711663
111.91296596972285,-7.706514763934024
111.86878316449872,-7.376540820684653</coordinates></LineString></Placemark></Document></kml>