<?xml version="1.0" encoding="UTF-8"?>
<kml xmlns="http://www.opengis.net/kml/2.2" xmlns:gx="http://www.google.com/kml/ext/2.2" xmlns:xsi="http://www.w3.org/2001/XMLSchema-instance"
 xsi:schemaLocation="http://www.opengis.net/kml/2.2 http://schemas.opengis.net/kml/2.2.0/ogckml22.xsd http://www.google.com/kml/ext/2.2 http://code.google.com/apis/kml/schema/kml22gx.xsd">
<Document id="dissolvekobarrr">
  <name>dissolvekobarrr</name>
  <Snippet></Snippet>
  <Folder id="FeatureLayer0">
    <name>dissolvekobarrr</name>
    <Snippet></Snippet>
    <Placemark id="ID_00000">
      <name>Jl. Batu Belaman - Pabrik Jagung</name>
      <Snippet></Snippet>
      <description><![CDATA[<html xmlns:fo="http://www.w3.org/1999/XSL/Format" xmlns:msxsl="urn:schemas-microsoft-com:xslt">
<head>
<META http-equiv="Content-Type" content="text/html">
<meta http-equiv="content-type" content="text/html; charset=UTF-8">
</head>
<body style="margin:0px 0px 0px 0px;overflow:auto;background:#FFFFFF;">
<table style="font-family:Arial,Verdana,Times;font-size:12px;text-align:left;width:100%;border-collapse:collapse;padding:3px 3px 3px 3px">
<tr style="text-align:center;font-weight:bold;background:#9CBCE2">
<td>Jl. Batu Belaman - Pabrik Jagung</td>
</tr>
<tr>
<td>
<table style="font-family:Arial,Verdana,Times;font-size:12px;text-align:left;width:100%;border-spacing:0px; padding:3px 3px 3px 3px">
<tr>
<td>FID</td>
<td>24</td>
</tr>
<tr bgcolor="#D4E4F3">
<td>Nama_Ruas</td>
<td>Jl. Batu Belaman - Pabrik Jagung</td>
</tr>
</table>
</td>
</tr>
</table>
</body>
</html>
]]></description>
      <styleUrl>#LineStyle00</styleUrl>
      <MultiGeometry>
        <LineString>
          <extrude>0</extrude><altitudeMode>clampToGround</altitudeMode>
          <coordinates> 111.6625285831277,-2.729220555983829,0 111.6625524511348,-2.729057506198899,0 111.6625524889063,-2.729057246294815,0 111.6625748433544,-2.728904537814117,0 111.662576925285,-2.728880701283288,0 111.6625824705047,-2.728857432224686,0 111.6625913594038,-2.728835235157931,0 111.6626033968294,-2.728814594817663,0 111.662618084557,-2.728798917835718,0 111.6626351581861,-2.728785913638944,0 111.6626541437738,-2.728775942855407,0 111.6626745125188,-2.728769281577058,0 111.6626956987475,-2.728766115963424,0 111.6627171143035,-2.728766533248859,0 111.6627381620366,-2.728770523540788,0 111.6627823088566,-2.728782956668056,0 111.6628275510507,-2.728790417443747,0 111.6628733346367,-2.728792815935663,0 111.6629191011357,-2.728790120667497,0 111.6629642947664,-2.728782366712778,0 111.663013014639,-2.728769040558746,0 111.6630627930135,-2.728760545562693,0 111.6631131559474,-2.728756959965665,0 111.6631636285986,-2.728758319740621,0 111.6632590295806,-2.72877992145618,0 111.6633534359124,-2.728805569221606,0 111.6634466749242,-2.728835218070799,0 111.6635385811406,-2.728868814044461,0 111.6635789939755,-2.728888188139308,0 111.663621899731,-2.728901048444584,0 111.6636662659855,-2.728907082895489,0 111.6637110270423,-2.728906149399222,0 111.6637551064131,-2.728898268640137,0 111.6637974437971,-2.728883630375208,0 111.6638654874024,-2.728874085870302,0 111.6639179250723,-2.728871763820791,0 111.6639341227617,-2.728871046161828,0 111.6640027374364,-2.728874540927279,0 111.6641040901317,-2.728894628184492,0 111.6645145506061,-2.728975982655413,0 111.665419409778,-2.7291897775861,0 111.6658588392141,-2.729293603417034,0 111.6659042136087,-2.729304324235102,0 111.6659720368801,-2.729323278346556,0 111.6660409762101,-2.729337588358987,0 111.6661107186348,-2.729347190420469,0 111.6661809457941,-2.729352041363597,0 111.6662261987801,-2.729344370146521,0 111.6662719158163,-2.729340346579704,0 111.6663178055223,-2.72933999764274,0 111.6665111669569,-2.729377674739851,0 111.6671564161358,-2.729503402659873,0 111.667626854196,-2.729595068757362,0 111.668002027072,-2.729668171948504,0 111.6680983669461,-2.729690965265775,0 111.6681198337634,-2.729696043737363,0 111.6684490395916,-2.729773929523162,0 111.6688976124349,-2.729872780304504,0 111.6693476394821,-2.729964700910159,0 111.6693864173494,-2.729972001606541,0 111.6697990164116,-2.730049672454356,0 111.67011443923,-2.73010403017679,0 111.6702516353048,-2.730127673353422,0 111.6705279699899,-2.730163576088103,0 111.6707286249261,-2.730194395854653,0 111.6708034071516,-2.730205881995801,0 111.6710778002004,-2.730254570392049,0 111.671160530634,-2.730271237527518,0 111.6712062584621,-2.73028045018259,0 111.6712667369704,-2.730292635996307,0 111.6713000640468,-2.73029934943537,0 111.6713510025468,-2.730309613397878,0 111.6716228685007,-2.730370981335682,0 111.6718932541704,-2.730438642729155,0 111.6721620147652,-2.730512562504714,0 111.6727247079789,-2.7306268321625,0 111.6729154694734,-2.7306677288326,0 111.6732861430411,-2.73074719652584,0 111.6738462560999,-2.730873639406866,0 111.6741657663371,-2.730912560266404,0 111.6744845876937,-2.730956837488009,0 111.6746846967414,-2.730988059251502,0 111.6748026302373,-2.731006459380524,0 111.6751198040358,-2.731061412454153,0 111.67531966577,-2.73109443106307,0 111.6754190228697,-2.73111084638839,0 111.6757397642788,-2.73116383534267,0 111.6763605492001,-2.731261076337546,0 111.6764609854861,-2.73127594932555,0 111.6769821147329,-2.731353127344903,0 111.6776044204078,-2.731439982968766,0 111.6776191566988,-2.731442606291182,0 111.6776280159203,-2.731444183702081,0 111.6776899891018,-2.731455214786308,0 111.6777764301382,-2.731464157644723,0 111.6778632893594,-2.731466764779327,0 111.6782001960822,-2.731480543292378,0 111.6782464733961,-2.731483200789057,0 111.6785368330085,-2.731499873320445,0 111.6788731093066,-2.731524747668914,0 111.6789098538068,-2.731528075160497,0 111.6792089350444,-2.731555160941866,0 111.6795442202896,-2.731591105944744,0 111.6796476935863,-2.731603925780519,0 111.6798788742107,-2.731632570087015,0 111.6799185352123,-2.731637141340968,0 111.6799568319423,-2.731648469201446,0 111.6799926384496,-2.731666219120655,0 111.6800248953327,-2.731689868592525,0</coordinates>
        </LineString>
      </MultiGeometry>
    </Placemark>
    <Placemark id="ID_00001">
      <name>Jl. Batu Belaman - Sungai Tendang</name>
      <Snippet></Snippet>
      <description><![CDATA[<html xmlns:fo="http://www.w3.org/1999/XSL/Format" xmlns:msxsl="urn:schemas-microsoft-com:xslt">
<head>
<META http-equiv="Content-Type" content="text/html">
<meta http-equiv="content-type" content="text/html; charset=UTF-8">
</head>
<body style="margin:0px 0px 0px 0px;overflow:auto;background:#FFFFFF;">
<table style="font-family:Arial,Verdana,Times;font-size:12px;text-align:left;width:100%;border-collapse:collapse;padding:3px 3px 3px 3px">
<tr style="text-align:center;font-weight:bold;background:#9CBCE2">
<td>Jl. Batu Belaman - Sungai Tendang</td>
</tr>
<tr>
<td>
<table style="font-family:Arial,Verdana,Times;font-size:12px;text-align:left;width:100%;border-spacing:0px; padding:3px 3px 3px 3px">
<tr>
<td>FID</td>
<td>25</td>
</tr>
<tr bgcolor="#D4E4F3">
<td>Nama_Ruas</td>
<td>Jl. Batu Belaman - Sungai Tendang</td>
</tr>
</table>
</td>
</tr>
</table>
</body>
</html>
]]></description>
      <styleUrl>#LineStyle01</styleUrl>
      <MultiGeometry>
        <LineString>
          <extrude>0</extrude><altitudeMode>clampToGround</altitudeMode>
          <coordinates> 111.6924702372118,-2.723366631364911,0 111.6924681058185,-2.723367867932723,0 111.6924657990575,-2.723368724986642,0 111.6924633816798,-2.723369180942882,0 111.6924609229333,-2.723369221412384,0 111.6924584920658,-2.72336884549577,0 111.6924561574258,-2.723368064884255,0 111.6924237971206,-2.723348554092468,0 111.6924192015849,-2.723344360553767,0 111.6924179964934,-2.723343260682896,0 111.6923787473813,-2.723312604592991,0 111.6923358209414,-2.723287421777059,0 111.6922899672083,-2.723268148406248,0 111.6922419874778,-2.723255124424384,0 111.6921927181195,-2.723248575561286,0 111.6921430206839,-2.72324861603073,0 111.6920462815107,-2.723263327140785,0 111.6919489865566,-2.723273696323986,0 111.6918513291756,-2.723279701996603,0 111.691753502722,-2.723281334266119,0 111.69164031315,-2.723284906373294,0 111.6915274851054,-2.723294686500537,0 111.6914153567334,-2.723310643171601,0 111.6913042607831,-2.723332729621745,0 111.6912518518915,-2.723342730982211,0 111.6911986129257,-2.723346081856164,0 111.6911453730606,-2.723342730982211,0 111.6910929650683,-2.723332730521065,0 111.6908726257711,-2.723216611857083,0 111.6908264671678,-2.723201602172139,0 111.6907790854864,-2.723191128667622,0 111.6907309222943,-2.723185291168193,0 111.6906835298211,-2.723184167914951,0 111.6906824227557,-2.723184141834622,0 111.690653716396,-2.723185678776019,0 111.6905952811474,-2.723176498496571,0 111.6905380662788,-2.723161433053633,0 111.6904826554502,-2.723140638929294,0 111.6904296125367,-2.723114327464202,0 111.6903794834265,-2.723082767555638,0 111.6902828395815,-2.723059032648166,0 111.6901849537726,-2.723041167615747,0 111.690086180333,-2.72302923631014,0 111.6899868726961,-2.723023280999598,0 111.6893920071355,-2.722960820385481,0 111.6893158489473,-2.722944247678868,0 111.6892387006056,-2.72293324177565,0 111.6891609632079,-2.722927859333197,0 111.6890830423486,-2.722928130029118,0 111.6890053445211,-2.72293405116551,0 111.68892050158,-2.722957618799001,0 111.6889196984853,-2.722957841830862,0 111.6887376550188,-2.723008409810234,0 111.6887164705887,-2.72301861351815,0 111.6886938904108,-2.723025121911803,0 111.6886705467084,-2.723027752428777,0 111.6886470941881,-2.723026431324684,0 111.6886241884556,-2.723021195471745,0 111.6886024716268,-2.723012192358738,0 111.6885825534421,-2.722999673795869,0 111.6885649896826,-2.722983988720046,0 111.6885502731767,-2.72296557869845,0 111.6885300708062,-2.722915581788641,0 111.6885142175572,-2.722864023655745,0 111.6885028312407,-2.722811285612295,0 111.6884959954938,-2.722757757964132,0 111.6884937606786,-2.722703839110864,0 111.6884697280955,-2.722074114029113,0 111.6884740673244,-2.722031158810864,0 111.6884727327305,-2.721988003043862,0 111.6884657458975,-2.721945402158553,0 111.6884532300326,-2.721904099894232,0 111.688435403671,-2.721864821104589,0 111.6884125788775,-2.721828250173587,0 111.688385154951,-2.721795028317843,0 111.6883536103309,-2.721765735600172,0 111.6883089311123,-2.721736574183524,0 111.688261390251,-2.721712416594698,0 111.6882117036073,-2.72169360547548,0 111.68821154083,-2.721693543422248,0 111.6881664119504,-2.721681523983079,0 111.6881203558698,-2.721673838376887,0 111.688073785377,-2.721670557650043,0 111.6880236265891,-2.721686530508919,0 111.6879754220282,-2.721707732925495,0 111.6879297094886,-2.721733927478738,0 111.6878869970873,-2.721764823687636,0 111.6878477632637,-2.721800076212503,0 111.6877135169653,-2.721963349928615,0 111.6875613705608,-2.722158118802099,0 111.687414118267,-2.722356655834972,0 111.6873080387351,-2.722507410088838,0 111.6872718536132,-2.722558835122072,0 111.6871346629344,-2.722764531657788,0 111.6870274187804,-2.722934365928211,0 111.6870026334648,-2.722973615939566,0 111.6867067205388,-2.723410419355332,0 111.6866589980144,-2.723480863251211,0 111.6866239208573,-2.723532642617329,0 111.6862173121793,-2.724132845654253,0 111.6860340968961,-2.724403293377236,0 111.6860157687128,-2.72443054283525,0 111.6852307774785,-2.72559762003408,0 111.6850703006539,-2.72583620747497,0 111.6850399008708,-2.72588464765829,0 111.6850154644922,-2.725933863057264,0 111.6850144563521,-2.725935894625764,0 111.6849942189081,-2.725989438461795,0 111.6849599340538,-2.726073772386656,0 111.684920102181,-2.726155605296924,0 111.6848749031543,-2.726234568470488,0 111.6848245402204,-2.72631030577594,0 111.6847692409078,-2.726382476370134,0 111.6847092516307,-2.726450756497172,0 111.6846448457831,-2.726514836790216,0 111.6845763111479,-2.726574430365645,0 111.6845039561927,-2.726629267426688,0 111.68442810917,-2.726679102458547,0 111.6843302773205,-2.726768956422177,0 111.6842366408084,-2.726863222459713,0 111.6841473983838,-2.72696170182104,0 111.6838967744167,-2.727321077205886,0 111.6836764890788,-2.727636951484101,0 111.6833553861422,-2.728048227643569,0 111.6827860685223,-2.728743447651937,0 111.6824699577225,-2.729129462754429,0 111.6823278216717,-2.729303032808673,0 111.6822471120147,-2.729408507996197,0 111.6821617600572,-2.729510221319629,0 111.6820719384692,-2.729607965934861,0 111.6819778307124,-2.729701541293025,0 111.6818796265436,-2.729790761234597,0 111.6817775265117,-2.729875443197102,0 111.6816717356621,-2.729955413611378,0 111.6815624716308,-2.730030511498853,0 111.6815458152872,-2.730040884279333,0 111.6814499547517,-2.730100583974718,0 111.6811431276533,-2.730290033358301,0 111.6808397296699,-2.730484983894826,0 111.6805398561295,-2.730685376229076,0 111.680465162937,-2.730737255419967,0 111.6803154060312,-2.730841272806458,0 111.6802436059577,-2.730891142911844,0 111.6802014178612,-2.730923177662476,0 111.6801628810122,-2.730959567829757,0 111.6801284387765,-2.730999895228933,0 111.6800984841578,-2.731043696709207,0 111.6800819294376,-2.73107452007298,0 111.6800733615964,-2.731090470448805,0 111.6800533615734,-2.731139678653221,0 111.680038710718,-2.731190755648811,0 111.6800295790019,-2.731243115976952,0 111.6800273531799,-2.731588639104359,0 111.6800266921782,-2.73161583280438,0 111.6800248953327,-2.731689868592525,0 111.6800189679011,-2.731934066903591,0 111.6800132104414,-2.732070784539019,0 111.6800044294609,-2.732279286959454,0 111.6799837405573,-2.732624191353295,0 111.6799643601672,-2.732872995092578,0 111.6799569074854,-2.732968665871169,0 111.6799239410371,-2.733312602594481,0 111.6798848493064,-2.733655890007299,0 111.6798396466824,-2.733998417492899,0 111.679788346655,-2.73434007533416,0 111.6797333450179,-2.734666631759581,0 111.6797309663111,-2.734680753813677,0 111.6796675236374,-2.735020344113536,0 111.6795825844687,-2.735455372267552,0 111.6795153763336,-2.735799593176637,0 111.6794362908522,-2.736204638832987,0 111.6794318347115,-2.736227465425145,0 111.6794240070124,-2.736267555403288,0 111.6793898237814,-2.736442629123985,0</coordinates>
        </LineString>
      </MultiGeometry>
    </Placemark>
    <Placemark id="ID_00002">
      <name>JL. DPRD</name>
      <Snippet></Snippet>
      <description><![CDATA[<html xmlns:fo="http://www.w3.org/1999/XSL/Format" xmlns:msxsl="urn:schemas-microsoft-com:xslt">
<head>
<META http-equiv="Content-Type" content="text/html">
<meta http-equiv="content-type" content="text/html; charset=UTF-8">
</head>
<body style="margin:0px 0px 0px 0px;overflow:auto;background:#FFFFFF;">
<table style="font-family:Arial,Verdana,Times;font-size:12px;text-align:left;width:100%;border-collapse:collapse;padding:3px 3px 3px 3px">
<tr style="text-align:center;font-weight:bold;background:#9CBCE2">
<td>JL. DPRD</td>
</tr>
<tr>
<td>
<table style="font-family:Arial,Verdana,Times;font-size:12px;text-align:left;width:100%;border-spacing:0px; padding:3px 3px 3px 3px">
<tr>
<td>FID</td>
<td>49</td>
</tr>
<tr bgcolor="#D4E4F3">
<td>Nama_Ruas</td>
<td>JL. DPRD</td>
</tr>
</table>
</td>
</tr>
</table>
</body>
</html>
]]></description>
      <styleUrl>#LineStyle02</styleUrl>
      <MultiGeometry>
        <LineString>
          <extrude>0</extrude><altitudeMode>clampToGround</altitudeMode>
          <coordinates> 111.7019148399979,-2.720006610416704,0 111.7018640354969,-2.72007201541112,0 111.7015118223128,-2.720521848204669,0 111.7014996922571,-2.720537340825558,0 111.7009522470486,-2.721236518750288,0 111.7009324089036,-2.721261855350292,0 111.6998392038163,-2.722658055524789,0 111.6998193656713,-2.722683391225473,0 111.6996115917017,-2.72294875238299,0 111.6986876884861,-2.724048029692767,0 111.6986669887905,-2.724072658526325,0 111.6984889347166,-2.724284510921393,0 111.6982510262639,-2.724567578830659,0 111.69754631571,-2.725446522239167,0 111.6975261879833,-2.725471626814056,0 111.6965287894721,-2.726715623027531,0 111.696438579377,-2.726828136309393,0 111.6964147203631,-2.726853000765345,0 111.6964083684515,-2.726859620674929,0 111.6963906086397,-2.726874190591389,0 111.696374655566,-2.726887278425124,0 111.6963379164617,-2.72691071655629,0 111.696298670947,-2.726929603218594,0 111.6962574739034,-2.726943674910615,0 111.6962149071923,-2.72695273018428,0 111.6955130142143,-2.727061164141389,0 111.6949391199445,-2.727152901285308,0 111.6948116923058,-2.727173270030335,0 111.6946614137933,-2.727198100312023,0 111.6946297702478,-2.727203328071084,0 111.6941109594533,-2.72728904785123,0 111.6940760936369,-2.727298191258456,0 111.6940431110008,-2.727312776463407,0 111.6940128452167,-2.727332437441987,0 111.6939860616075,-2.727356674171119,0 111.6939634382621,-2.727384875111852,0 111.6939400882645,-2.727441286885835,0 111.6939111354906,-2.727495007888251,0 111.6939009749501,-2.727515358646826,0 111.6938877666072,-2.727533854104024,0 111.6938718369158,-2.727550037404228,0 111.6938535797789,-2.727563509248512,0 111.6938334493543,-2.727573935088969,0 111.6938119402689,-2.72758105771959,0 111.6937895876195,-2.727584699973875,0 111.6937669435897,-2.727584771919624,0 111.6937445675578,-2.727581271758254,0 111.6935648515367,-2.727569408801116,0 111.6934782675081,-2.727566325925181,0 111.6933916879761,-2.727569508625891,0 111.6933055590044,-2.727578942514128,0 111.6932203266568,-2.727594576328613,0 111.6931364333997,-2.727616330928868,0 111.6930192256568,-2.72765258260057,0 111.6929885740635,-2.727662063253547,0 111.6929711011355,-2.72766746727973,0 111.6928072743363,-2.727723287299796,0 111.6926450843033,-2.727783746023022,0 111.692568909028,-2.727814634137985,0 111.6924846596394,-2.727848797583874,0 111.6923261298471,-2.727918386224474,0 111.6922412113629,-2.727960272148778,0 111.6921589458787,-2.728007206867062,0 111.6920796274729,-2.728059020407443,0 111.6920035448278,-2.728115525710905,0 111.691930970438,-2.728176520430054,0 111.6918621651069,-2.728241782432292,0 111.6917088226041,-2.72839393243396,0 111.6915592698445,-2.728549850595073,0 111.6915196178362,-2.728593292346545,0 111.691497933383,-2.728617048837691,0 111.6914136003574,-2.728709442486718,0 111.6912719022765,-2.728872610082817,0 111.691134262836,-2.729039253558653,0 111.691088133011,-2.729101861661547,0 111.6910459008477,-2.729167192012255,0 111.6910077237275,-2.729234999095866,0 111.6909737473407,-2.729305029303589,0 111.6908808779502,-2.72959779999843,0 111.690699737403,-2.730168845215985,0 111.69068999145,-2.730199566956401,0 111.6905033029851,-2.730788101289818,0 111.6903805797001,-2.731169973215629,0 111.6901487911339,-2.731891220503371,0 111.690142885286,-2.7319095981494,0 111.6901389300676,-2.731921905371564,0 111.6895955093253,-2.733612843058211,0 111.6895856482591,-2.733643527027084,0 111.6893734945912,-2.734303674375042,0 111.6893182420433,-2.73442533196345,0 111.6892569982119,-2.734544054164701,0 111.6891730617874,-2.734670592373902,0 111.6890928872271,-2.734780098322858,0 111.689083381393,-2.734793082734541,0 111.6887994816108,-2.735217597813858,0 111.6882282268513,-2.736071792778944,0 111.6878687309572,-2.736609348142849,0 111.6877954200227,-2.736718968305695,0 111.6877206485891,-2.736830775619751,0 111.6876960665203,-2.73686807410229,0 111.6874673680247,-2.737215085607659,0 111.686892694942,-2.738141557287008,0 111.6868680885915,-2.738181227281757,0 111.6868315194591,-2.738246402049754,0</coordinates>
        </LineString>
      </MultiGeometry>
    </Placemark>
    <Placemark id="ID_00003">
      <name>JL. DPRD 1</name>
      <Snippet></Snippet>
      <description><![CDATA[<html xmlns:fo="http://www.w3.org/1999/XSL/Format" xmlns:msxsl="urn:schemas-microsoft-com:xslt">
<head>
<META http-equiv="Content-Type" content="text/html">
<meta http-equiv="content-type" content="text/html; charset=UTF-8">
</head>
<body style="margin:0px 0px 0px 0px;overflow:auto;background:#FFFFFF;">
<table style="font-family:Arial,Verdana,Times;font-size:12px;text-align:left;width:100%;border-collapse:collapse;padding:3px 3px 3px 3px">
<tr style="text-align:center;font-weight:bold;background:#9CBCE2">
<td>JL. DPRD 1</td>
</tr>
<tr>
<td>
<table style="font-family:Arial,Verdana,Times;font-size:12px;text-align:left;width:100%;border-spacing:0px; padding:3px 3px 3px 3px">
<tr>
<td>FID</td>
<td>50</td>
</tr>
<tr bgcolor="#D4E4F3">
<td>Nama_Ruas</td>
<td>JL. DPRD 1</td>
</tr>
</table>
</td>
</tr>
</table>
</body>
</html>
]]></description>
      <styleUrl>#LineStyle03</styleUrl>
      <MultiGeometry>
        <LineString>
          <extrude>0</extrude><altitudeMode>clampToGround</altitudeMode>
          <coordinates> 111.6833553861422,-2.728048227643569,0 111.6834057940422,-2.728078731748042,0 111.6835151498044,-2.728144908360775,0 111.6836993534425,-2.728256381127039,0 111.6837717021024,-2.728300163721542,0 111.6838852073365,-2.728368852140761,0 111.6842475495848,-2.728588125741339,0 111.6844354206582,-2.728701818933757,0 111.6845279474069,-2.728757811623666,0 111.6854439887492,-2.729272004399434,0 111.6859800350507,-2.729572897770993,0 111.6861327525245,-2.729658621148417,0 111.6864653164213,-2.729836558310467,0 111.6870247855655,-2.730135899452137,0 111.6870399076657,-2.730143990652607,0 111.6875980682963,-2.730431315952444,0 111.6876051864303,-2.730434979790459,0 111.6876672594365,-2.730458985393796,0 111.6877313640113,-2.730476794668277,0 111.6877873423121,-2.730496842355365,0 111.6878413403057,-2.730521785052304,0 111.6878929353108,-2.730551427606258,0 111.6879417244311,-2.730585537992113,0 111.6879873254547,-2.730623850909922,0 111.6880538528031,-2.730648753137416,0 111.6881179097138,-2.730679515347333,0 111.6881789889692,-2.730715891125442,0 111.6882040665645,-2.730726777418795,0 111.6882271431682,-2.730741475038997,0 111.6882476504088,-2.730759618861271,0 111.688265081968,-2.730780767318493,0 111.6882790106679,-2.730804396105953,0 111.6882846080483,-2.730813943308817,0 111.6882917243837,-2.730822407727885,0 111.6883001546285,-2.730829547445637,0 111.6883096613619,-2.73083515651723,0 111.6883199711898,-2.730839077561313,0 111.6883281784028,-2.730844088583751,0 111.6885732724387,-2.730993722282392,0 111.6885869277446,-2.731002058098454,0 111.6891387697385,-2.731338964821305,0 111.6894762277458,-2.731544986911558,0 111.690142885286,-2.7319095981494,0</coordinates>
        </LineString>
      </MultiGeometry>
    </Placemark>
    <Placemark id="ID_00004">
      <name>Jl. DPRD 2 - Sungai Tendang</name>
      <Snippet></Snippet>
      <description><![CDATA[<html xmlns:fo="http://www.w3.org/1999/XSL/Format" xmlns:msxsl="urn:schemas-microsoft-com:xslt">
<head>
<META http-equiv="Content-Type" content="text/html">
<meta http-equiv="content-type" content="text/html; charset=UTF-8">
</head>
<body style="margin:0px 0px 0px 0px;overflow:auto;background:#FFFFFF;">
<table style="font-family:Arial,Verdana,Times;font-size:12px;text-align:left;width:100%;border-collapse:collapse;padding:3px 3px 3px 3px">
<tr style="text-align:center;font-weight:bold;background:#9CBCE2">
<td>Jl. DPRD 2 - Sungai Tendang</td>
</tr>
<tr>
<td>
<table style="font-family:Arial,Verdana,Times;font-size:12px;text-align:left;width:100%;border-spacing:0px; padding:3px 3px 3px 3px">
<tr>
<td>FID</td>
<td>51</td>
</tr>
<tr bgcolor="#D4E4F3">
<td>Nama_Ruas</td>
<td>Jl. DPRD 2 - Sungai Tendang</td>
</tr>
</table>
</td>
</tr>
</table>
</body>
</html>
]]></description>
      <styleUrl>#LineStyle04</styleUrl>
      <MultiGeometry>
        <LineString>
          <extrude>0</extrude><altitudeMode>clampToGround</altitudeMode>
          <coordinates> 111.6860513863625,-2.73988520513808,0 111.6862595893086,-2.739384328623828,0 111.6863214590682,-2.739232653464114,0 111.6863865070317,-2.739082328186839,0 111.6864547053204,-2.738933421140416,0 111.6866544816191,-2.738535952272343,0 111.68666557026,-2.738516191468989,0 111.6868017698859,-2.738273497723696,0 111.686810544571,-2.738262490021839,0 111.6868210369614,-2.738253125381391,0 111.6868329466832,-2.738245670001618,0 111.6868459346922,-2.738240336122544,0 111.6868596304676,-2.738237276628979,0 111.6868736419051,-2.73823657785573,0 111.6868875706049,-2.738238261386584,0 111.6869010199662,-2.738242277758843,0 111.6869136050789,-2.738248512758617,0 111.6869790388516,-2.738278017716311,0 111.6877851956303,-2.738720237748737,0 111.6881396796026,-2.738918969934446,0 111.6883225180698,-2.739021472862646,0 111.6883562813174,-2.739036344052011,0 111.6883918189274,-2.739046188031125,0 111.6884283934556,-2.739050800653899,0 111.6884652467738,-2.739050083894199,0 111.6885016162566,-2.739044054839212,0 111.688536750071,-2.739032837595346,0 111.6888090692832,-2.738893156693791,0 111.6890835459689,-2.738757811423795,0 111.6893601090818,-2.738626833261719,0 111.6896386911727,-2.738500255482336,0 111.6897752658159,-2.738448479713497,0 111.6898040315309,-2.738437573635054,0 111.6899709726823,-2.738379337136678,0 111.6901393941178,-2.738325586456597,0 111.6903091771269,-2.738276359366466,0 111.6904802038984,-2.738231690939756,0 111.6908141437578,-2.738128007201738,0 111.6911495288277,-2.738029156420396,0 111.6914862907598,-2.737935157481502,0 111.6914990872132,-2.737931784124498,0 111.6918243612054,-2.73784603017009,0 111.6922224020423,-2.73772444632607,0 111.6926219924111,-2.737608112724161,0 111.6930230648626,-2.737497053646052,0 111.6932310681593,-2.737442391952754,0 111.6934255474511,-2.737391285279557,0 111.6935456636016,-2.737359414205571,0 111.69366737425,-2.737334399562826,0 111.6937902935873,-2.737316322290383,0 111.6939140295089,-2.737305238146178,0 111.6940381917092,-2.737301183103057,0 111.6941623826879,-2.73730417065093,0 111.6942862094411,-2.737314191796486,0 111.6944915705296,-2.737330152064828,0 111.694697291347,-2.737340394443606,0 111.6949032163104,-2.737344909040246,0 111.695013952532,-2.737344254333834,0 111.69510918624,-2.737343692257525,0 111.6953150446536,-2.737336746793403,0 111.6955206314721,-2.737324078043741,0 111.6957257920117,-2.737305693203155,0 111.6958564760956,-2.737288591695119,0 111.6959862176898,-2.73726534601883,0 111.6961147335082,-2.73723600923438,0 111.6962417384655,-2.737200642495623,0 111.6963669546713,-2.737159325842185,0 111.696490106933,-2.737112151004908,0 111.6966109236553,-2.737059219607261,0 111.6967291386389,-2.737000649460356,0 111.6967564528481,-2.736984241329651,0 111.6969558343444,-2.736864475015466,0 111.6971802331813,-2.736724504532219,0 111.6974022712979,-2.736580779379437,0 111.6976218866408,-2.736433337328606,0 111.6982799061928,-2.736021969438298,0 111.6989524506951,-2.735601521093258,0 111.699148351815,-2.735460415665614,0 111.6993482800991,-2.735325141442104,0 111.6994072702294,-2.735287706262568,0 111.6995520646761,-2.735195818931857,0 111.6997595301783,-2.735072555154261,0 111.6997952611425,-2.73504770958408,0 111.6999229531818,-2.734958916820517,0 111.7000831116463,-2.734840671259917,0 111.7002694646641,-2.734710900887308,0 111.7004525891157,-2.734576563757344,0 111.7006323752839,-2.734437739909708,0 111.7008087134514,-2.734294515679324,0 111.7009814956995,-2.734146974703094,0 111.7011683262573,-2.733980878914395,0 111.7012159858292,-2.733940128833808,0 111.7013583098382,-2.733818439769152,0 111.7015513771943,-2.733659720219862,0 111.7017474536821,-2.733504776024574,0 111.7019464700536,-2.733353668337088,0 111.7021279343567,-2.733225695709223,0 111.702305430851,-2.733092215633178,0 111.7024787931618,-2.732953350416722,0 111.7025117946836,-2.732925219623155,0 111.7026308811103,-2.732823705949215,0 111.7026478630085,-2.732809230461555,0 111.7028124803118,-2.732659990665979,0 111.7030522917299,-2.732388207449787,0 111.7032886101813,-2.732113348552161,0 111.7035213951963,-2.731835457140562,0 111.7037506108021,-2.731554580879163,0 111.7038209521753,-2.731469500516994,0 111.7045726469102,-2.730560300317563,0 111.7049737319522,-2.730080360020565,0 111.705137800669,-2.729884032621953,0 111.7060353213731,-2.728845432570608,0 111.7060930641437,-2.728778612942563,0 111.7061480289084,-2.728709674511833,0 111.7063175951809,-2.728497001035748,0 111.7063608993361,-2.728414869550534,0 111.7063988858,-2.728330120138878,0 111.7064313989899,-2.72824309903973,0 111.7064583058062,-2.728154163283989,0 111.7064734494902,-2.727919197412973,0 111.7064935304521,-2.727684606559308,0 111.7065185405982,-2.727450495044252,0 111.7065484682373,-2.727216967189236,0 111.7065814598665,-2.72699643094046,0 111.7065824662079,-2.726989702212961,0 111.7065833007788,-2.726984129114214,0 111.7066648450066,-2.726409631399349,0 111.7066850185988,-2.726340639908585,0 111.7067117167724,-2.726273926400552,0 111.7067446886165,-2.726210113206093,0 111.7067836274625,-2.726149796575783,0 111.7068281690848,-2.726093536787232,0 111.7068779006946,-2.726041859044528,0 111.7069636285686,-2.725924772710073,0 111.7069930732718,-2.72588455862541,0 111.707106218777,-2.725725777922264,0 111.7072616558008,-2.725510178951538,0 111.7073110726479,-2.725441635323136,0 111.7073372914829,-2.72540714362475,0</coordinates>
        </LineString>
      </MultiGeometry>
    </Placemark>
    <Placemark id="ID_00005">
      <name>JL. Nangka Batu Belaman</name>
      <Snippet></Snippet>
      <description><![CDATA[<html xmlns:fo="http://www.w3.org/1999/XSL/Format" xmlns:msxsl="urn:schemas-microsoft-com:xslt">
<head>
<META http-equiv="Content-Type" content="text/html">
<meta http-equiv="content-type" content="text/html; charset=UTF-8">
</head>
<body style="margin:0px 0px 0px 0px;overflow:auto;background:#FFFFFF;">
<table style="font-family:Arial,Verdana,Times;font-size:12px;text-align:left;width:100%;border-collapse:collapse;padding:3px 3px 3px 3px">
<tr style="text-align:center;font-weight:bold;background:#9CBCE2">
<td>JL. Nangka Batu Belaman</td>
</tr>
<tr>
<td>
<table style="font-family:Arial,Verdana,Times;font-size:12px;text-align:left;width:100%;border-spacing:0px; padding:3px 3px 3px 3px">
<tr>
<td>FID</td>
<td>111</td>
</tr>
<tr bgcolor="#D4E4F3">
<td>Nama_Ruas</td>
<td>JL. Nangka Batu Belaman</td>
</tr>
</table>
</td>
</tr>
</table>
</body>
</html>
]]></description>
      <styleUrl>#LineStyle05</styleUrl>
      <MultiGeometry>
        <LineString>
          <extrude>0</extrude><altitudeMode>clampToGround</altitudeMode>
          <coordinates> 111.6705577402476,-2.733980827652999,0 111.6705169110267,-2.734210242008999,0 111.6703026556431,-2.735414111372108,0 111.6702998929258,-2.735436895696125,0 111.6703009730115,-2.735459823012377,0 111.6703058662228,-2.735482242211674,0 111.6703144322653,-2.735503517473319,0 111.6703264301207,-2.735523044452918,0 111.6703415171473,-2.735540269168041,0 111.6703592661673,-2.735554700588921,0 111.6705338479588,-2.735742611232467,0 111.6706513380888,-2.735862712993765,0 111.6707131853653,-2.735925935333626,0 111.6707217891793,-2.735934287337443,0 111.6708971614749,-2.736104552383154,0 111.6710703825921,-2.736264262985287,0 111.6710856539798,-2.736278342771243,0 111.6718239407223,-2.736995993670121,0 111.6718821691269,-2.73704580621893,0 111.6719555358194,-2.737108569005216,0 111.6731486034254,-2.738129192508154,0 111.6732301773309,-2.738204797613264,0 111.6733198415375,-2.738287900366288,0 111.6746428647764,-2.739514111586914,0 111.6757682763849,-2.740557165980363,0 111.6757827132017,-2.740569639577132,0 111.6757990673731,-2.740579434093547,0 111.6758168532653,-2.740586257249902,0 111.6758355393787,-2.740589904900162,0 111.6758545708319,-2.740590269125562,0 111.6758733810518,-2.740587340933018,0 111.6758914115595,-2.740581205758019,0 111.675908126359,-2.740572046162924,0 111.6760047243386,-2.740506615987499,0 111.6773714456357,-2.7395808835509,0 111.6774199793487,-2.739540468018163,0 111.677424546106,-2.739536664785192,0 111.6774734485409,-2.739487795625223,0 111.6774821368912,-2.739477376979323,0 111.6775177509435,-2.739434674470601,0 111.6782426980421,-2.738434715589619,0 111.6784691176557,-2.738109063882121,0 111.678513156557,-2.73804405189145,0 111.6785329866081,-2.738009290396406,0 111.6785520801145,-2.737975817629831,0 111.6785856554037,-2.737904769389559,0 111.6786136827753,-2.737831329851929,0 111.678720124734,-2.737484683471337,0 111.6787401931055,-2.737414557935438,0 111.6787663795648,-2.737346502638957,0 111.6787984763686,-2.737281056275663,0 111.6788351129501,-2.737220583163321,0 111.6788362308075,-2.737218737754517,0 111.6788793425077,-2.73716003990387,0 111.6789274715256,-2.737105426773951,0 111.6789937758421,-2.737005727931944,0 111.6790644967292,-2.736909147039455,0 111.6791394911946,-2.736815881947337,0 111.679218604555,-2.736726123311883,0 111.6792697004364,-2.736660622089971,0 111.6793154570428,-2.736591242991437,0 111.6793555829938,-2.736518424885333,0 111.6793898237814,-2.736442629123985,0</coordinates>
        </LineString>
      </MultiGeometry>
    </Placemark>
    <Placemark id="ID_00006">
      <name>Jl. Pabrik Jagung</name>
      <Snippet></Snippet>
      <description><![CDATA[<html xmlns:fo="http://www.w3.org/1999/XSL/Format" xmlns:msxsl="urn:schemas-microsoft-com:xslt">
<head>
<META http-equiv="Content-Type" content="text/html">
<meta http-equiv="content-type" content="text/html; charset=UTF-8">
</head>
<body style="margin:0px 0px 0px 0px;overflow:auto;background:#FFFFFF;">
<table style="font-family:Arial,Verdana,Times;font-size:12px;text-align:left;width:100%;border-collapse:collapse;padding:3px 3px 3px 3px">
<tr style="text-align:center;font-weight:bold;background:#9CBCE2">
<td>Jl. Pabrik Jagung</td>
</tr>
<tr>
<td>
<table style="font-family:Arial,Verdana,Times;font-size:12px;text-align:left;width:100%;border-spacing:0px; padding:3px 3px 3px 3px">
<tr>
<td>FID</td>
<td>123</td>
</tr>
<tr bgcolor="#D4E4F3">
<td>Nama_Ruas</td>
<td>Jl. Pabrik Jagung</td>
</tr>
</table>
</td>
</tr>
</table>
</body>
</html>
]]></description>
      <styleUrl>#LineStyle06</styleUrl>
      <MultiGeometry>
        <LineString>
          <extrude>0</extrude><altitudeMode>clampToGround</altitudeMode>
          <coordinates> 111.6661734652333,-2.729384741612478,0 111.6661282760991,-2.72973778307221,0 111.6658985802553,-2.731532277692395,0 111.6658879295844,-2.731615487464751,0 111.6658604265176,-2.731771175399388,0 111.665838322081,-2.7319277320791,0 111.6658216459522,-2.732084966847708,0 111.6658104170172,-2.732242689048803,0 111.6658046487656,-2.732400709824844,0 111.6657988859099,-2.732490192368459,0 111.6657983921821,-2.732579862870352,0 111.6658031666829,-2.732669404769183,0 111.6658131968217,-2.732758506899529,0 111.6658284439276,-2.732846857196648,0 111.6659292930025,-2.733322585069175,0</coordinates>
        </LineString>
      </MultiGeometry>
    </Placemark>
    <Placemark id="ID_00007">
      <name>Jl. Pare - Pare</name>
      <Snippet></Snippet>
      <description><![CDATA[<html xmlns:fo="http://www.w3.org/1999/XSL/Format" xmlns:msxsl="urn:schemas-microsoft-com:xslt">
<head>
<META http-equiv="Content-Type" content="text/html">
<meta http-equiv="content-type" content="text/html; charset=UTF-8">
</head>
<body style="margin:0px 0px 0px 0px;overflow:auto;background:#FFFFFF;">
<table style="font-family:Arial,Verdana,Times;font-size:12px;text-align:left;width:100%;border-collapse:collapse;padding:3px 3px 3px 3px">
<tr style="text-align:center;font-weight:bold;background:#9CBCE2">
<td>Jl. Pare - Pare</td>
</tr>
<tr>
<td>
<table style="font-family:Arial,Verdana,Times;font-size:12px;text-align:left;width:100%;border-spacing:0px; padding:3px 3px 3px 3px">
<tr>
<td>FID</td>
<td>140</td>
</tr>
<tr bgcolor="#D4E4F3">
<td>Nama_Ruas</td>
<td>Jl. Pare - Pare</td>
</tr>
</table>
</td>
</tr>
</table>
</body>
</html>
]]></description>
      <styleUrl>#LineStyle07</styleUrl>
      <MultiGeometry>
        <LineString>
          <extrude>0</extrude><altitudeMode>clampToGround</altitudeMode>
          <coordinates> 111.676083516641,-2.722405101414267,0 111.6762057794732,-2.722876177093838,0 111.6762395688011,-2.723053660997607,0 111.6765219838026,-2.724537072927546,0 111.6765778820637,-2.724830683589119,0 111.6766792959128,-2.725363366426166,0 111.6768868567431,-2.726453596556212,0 111.6769161962255,-2.72660770618063,0 111.6771159950072,-2.727657166445056,0 111.6772545103874,-2.728384728772141,0 111.677256053624,-2.728392839757703,0 111.6772909940842,-2.7285513641541,0 111.6773323269254,-2.728708325528771,0 111.6773357236648,-2.728719386290607,0 111.6773799828999,-2.728863463977632,0 111.6774338846661,-2.729016521395295,0 111.6774939413924,-2.729167244172913,0 111.6775600541532,-2.729315381399658,0 111.6776116599502,-2.729422446588615,0 111.6776574974956,-2.72953213509993,0 111.6776974336897,-2.729644131271584,0 111.6777313552179,-2.729758115844334,0 111.6777591640542,-2.729873762364207,0 111.6777807819576,-2.729990738981371,0 111.6777953644645,-2.730102716267311,0 111.6777961450761,-2.730108709349395,0 111.6777884720604,-2.730636251661622,0 111.6777764301382,-2.731464157644723,0 111.6777731467134,-2.731503210704545,0 111.6777389248116,-2.731910222278884,0 111.6777341709953,-2.731966747367437,0 111.6776459726835,-2.733015713004704,0 111.6776210551676,-2.733312057605303,0 111.6775873350875,-2.733713084191436,0 111.6774893845275,-2.734878034493647,0 111.6774797114196,-2.735005701352009,0 111.6774635533004,-2.735132704510647,0 111.6774409515388,-2.735258708522508,0 111.6774119654899,-2.735383384235774,0 111.6773766742941,-2.735506404297098,0</coordinates>
        </LineString>
      </MultiGeometry>
    </Placemark>
  </Folder>
  <Style id="LineStyle00">
    <LabelStyle>
      <color>00000000</color>
      <scale>0.000000</scale>
    </LabelStyle>
    <LineStyle>
      <color>ff409c32</color>
      <width>12.000000</width>
    </LineStyle>
    <PolyStyle>
      <color>00000000</color>
      <outline>0</outline>
    </PolyStyle>
  </Style>
  <Style id="LineStyle01">
    <LabelStyle>
      <color>00000000</color>
      <scale>0.000000</scale>
    </LabelStyle>
    <LineStyle>
      <color>ff7e8f33</color>
      <width>12.000000</width>
    </LineStyle>
    <PolyStyle>
      <color>00000000</color>
      <outline>0</outline>
    </PolyStyle>
  </Style>
  <Style id="LineStyle02">
    <LabelStyle>
      <color>00000000</color>
      <scale>0.000000</scale>
    </LabelStyle>
    <LineStyle>
      <color>ff283ca8</color>
      <width>12.000000</width>
    </LineStyle>
    <PolyStyle>
      <color>00000000</color>
      <outline>0</outline>
    </PolyStyle>
  </Style>
  <Style id="LineStyle03">
    <LabelStyle>
      <color>00000000</color>
      <scale>0.000000</scale>
    </LabelStyle>
    <LineStyle>
      <color>ff4a4da8</color>
      <width>12.000000</width>
    </LineStyle>
    <PolyStyle>
      <color>00000000</color>
      <outline>0</outline>
    </PolyStyle>
  </Style>
  <Style id="LineStyle04">
    <LabelStyle>
      <color>00000000</color>
      <scale>0.000000</scale>
    </LabelStyle>
    <LineStyle>
      <color>ff51ad37</color>
      <width>12.000000</width>
    </LineStyle>
    <PolyStyle>
      <color>00000000</color>
      <outline>0</outline>
    </PolyStyle>
  </Style>
  <Style id="LineStyle05">
    <LabelStyle>
      <color>00000000</color>
      <scale>0.000000</scale>
    </LabelStyle>
    <LineStyle>
      <color>ffa1237b</color>
      <width>12.000000</width>
    </LineStyle>
    <PolyStyle>
      <color>00000000</color>
      <outline>0</outline>
    </PolyStyle>
  </Style>
  <Style id="LineStyle06">
    <LabelStyle>
      <color>00000000</color>
      <scale>0.000000</scale>
    </LabelStyle>
    <LineStyle>
      <color>ff43508f</color>
      <width>12.000000</width>
    </LineStyle>
    <PolyStyle>
      <color>00000000</color>
      <outline>0</outline>
    </PolyStyle>
  </Style>
  <Style id="LineStyle07">
    <LabelStyle>
      <color>00000000</color>
      <scale>0.000000</scale>
    </LabelStyle>
    <LineStyle>
      <color>ffad5f42</color>
      <width>12.000000</width>
    </LineStyle>
    <PolyStyle>
      <color>00000000</color>
      <outline>0</outline>
    </PolyStyle>
  </Style>
</Document>
</kml>