<kml xmlns="http://www.opengis.net/kml/2.2"><Document>
<Placemark>
<ExtendedData></ExtendedData>
  <Polygon>
<outerBoundaryIs>
  <LinearRing><coordinates>27.161406244731495,-10.924338107318519
27.161406244731495,-4.4252182543885965
17.7608963987974,-4.4252182543885965
17.7608963987974,-10.924338107318519
27.161406244731495,-10.924338107318519</coordinates></LinearRing></outerBoundaryIs></Polygon></Placemark>
<Placemark>
<ExtendedData></ExtendedData>
  <LineString><coordinates>32.15112923578272,-7.047721283416465
36.44794428756711,-9.285667585221503
29.336143735737465,-12.178300194230019
29.26129302196071,-7.637795634430802
31.808672443855954,-10.794680754979481
33.34615603659563,-14.073623293468131
27.9624326453378,-14.004386996183598
21.482594865129954,-12.995905245495024
25.789907114996453,-12.048982376704359</coordinates></LineString></Placemark></Document></kml>